{"type": "FeatureCollection", "features": [ {"type": "Feature", "properties": {"norad_id": 38779, "name": "GSAT-10 (GAGAN/PRN 128)", "group": "gnss", "lat": 0.04897328656551639, "lon": 39.477853474466315, "alt_km": 35785.05348573622, "timestamp": "2025-12-25T14:48:25.022702+00:00", "meta": {"OBJECT_NAME": "GSAT-10 (GAGAN/PRN 128)", "OBJECT_ID": "2012-051B", "EPOCH": "2025-12-24T22:22:53.622048", "MEAN_MOTION": 1.00271102, "ECCENTRICITY": 0.0002181, "INCLINATION": 0.0626, "RA_OF_ASC_NODE": 262.1776, "ARG_OF_PERICENTER": 219.7233, "MEAN_ANOMALY": 30.5548, "EPHEMERIS_TYPE": 0, "CLASSIFICATION_TYPE": "U", "NORAD_CAT_ID": 38779, "ELEMENT_SET_NO": 999, "REV_AT_EPOCH": 4835, "BSTAR": 0, "MEAN_MOTION_DOT": -1.44e-06, "MEAN_MOTION_DDOT": 0}, "tle": {"line1": "1 38779U 12051B   25358.93256507 -.00000144  00000+0  00000+0 0  9991", "line2": "2 38779   0.0626 262.1776 0002181 219.7233  30.5548  1.00271102 48359"}}, "geometry": {"type": "Point", "coordinates": [39.477853474466315, 0.04897328656551639]}}, {"type": "Feature", "properties": {"norad_id": 38833, "name": "GPS BIIF-3  (PRN 24)", "group": "gnss", "lat": -31.406630998087316, "lon": -2.490393315268217, "alt_km": 20612.047574891483, "timestamp": "2025-12-25T14:48:25.022722+00:00", "meta": {"OBJECT_NAME": "GPS BIIF-3  (PRN 24)", "OBJECT_ID": "2012-053A", "EPOCH": "2025-12-24T07:38:21.199488", "MEAN_MOTION": 2.00565058, "ECCENTRICITY": 0.01760755, "INCLINATION": 53.5598, "RA_OF_ASC_NODE": 150.7645, "ARG_OF_PERICENTER": 64.1634, "MEAN_ANOMALY": 297.6191, "EPHEMERIS_TYPE": 0, "CLASSIFICATION_TYPE": "U", "NORAD_CAT_ID": 38833, "ELEMENT_SET_NO": 999, "REV_AT_EPOCH": 9593, "BSTAR": 0, "MEAN_MOTION_DOT": 8.3e-07, "MEAN_MOTION_DDOT": 0}, "tle": {"line1": "1 38833U 12053A   25358.31830092  .00000083  00000+0  00000+0 0  9994", "line2": "2 38833  53.5598 150.7645 0176075  64.1634 297.6191  2.00565058 95932"}}, "geometry": {"type": "Point", "coordinates": [-2.490393315268217, -31.406630998087316]}}, {"type": "Feature", "properties": {"norad_id": 38857, "name": "GSAT0103 (GALILEO-FM3)", "group": "gnss", "lat": -31.66344094760369, "lon": -48.82763273078202, "alt_km": 23220.618953104775, "timestamp": "2025-12-25T14:48:25.022733+00:00", "meta": {"OBJECT_NAME": "GSAT0103 (GALILEO-FM3)", "OBJECT_ID": "2012-055A", "EPOCH": "2025-12-22T21:54:43.252704", "MEAN_MOTION": 1.70473351, "ECCENTRICITY": 0.0002995, "INCLINATION": 55.698, "RA_OF_ASC_NODE": 106.3873, "ARG_OF_PERICENTER": 269.858, "MEAN_ANOMALY": 90.0891, "EPHEMERIS_TYPE": 0, "CLASSIFICATION_TYPE": "U", "NORAD_CAT_ID": 38857, "ELEMENT_SET_NO": 999, "REV_AT_EPOCH": 8200, "BSTAR": 0, "MEAN_MOTION_DOT": 1e-07, "MEAN_MOTION_DDOT": 0}, "tle": {"line1": "1 38857U 12055A   25356.91300061  .00000010  00000+0  00000+0 0  9994", "line2": "2 38857  55.6980 106.3873 0002995 269.8580  90.0891  1.70473351 82005"}}, "geometry": {"type": "Point", "coordinates": [-48.82763273078202, -31.66344094760369]}}, {"type": "Feature", "properties": {"norad_id": 38953, "name": "BEIDOU-2 G6 (C02)", "group": "gnss", "lat": -2.2712495210091745, "lon": 40.5214699296252, "alt_km": 35756.81409900843, "timestamp": "2025-12-25T14:48:25.022744+00:00", "meta": {"OBJECT_NAME": "BEIDOU-2 G6 (C02)", "OBJECT_ID": "2012-059A", "EPOCH": "2025-12-25T01:00:51.719328", "MEAN_MOTION": 1.00274262, "ECCENTRICITY": 0.00079973, "INCLINATION": 3.9787, "RA_OF_ASC_NODE": 75.3898, "ARG_OF_PERICENTER": 294.4199, "MEAN_ANOMALY": 183.1448, "EPHEMERIS_TYPE": 0, "CLASSIFICATION_TYPE": "U", "NORAD_CAT_ID": 38953, "ELEMENT_SET_NO": 999, "REV_AT_EPOCH": 4816, "BSTAR": 0, "MEAN_MOTION_DOT": -1.55e-06, "MEAN_MOTION_DDOT": 0}, "tle": {"line1": "1 38953U 12059A   25359.04226527 -.00000155  00000+0  00000+0 0  9997", "line2": "2 38953   3.9787  75.3898 0007997 294.4199 183.1448  1.00274262 48166"}}, "geometry": {"type": "Point", "coordinates": [40.5214699296252, -2.2712495210091745]}}, {"type": "Feature", "properties": {"norad_id": 38977, "name": "LUCH 5B (SDCM/PRN 125)", "group": "gnss", "lat": -9.4211123813181, "lon": -60.09854671997013, "alt_km": 35770.23896317451, "timestamp": "2025-12-25T14:48:25.022754+00:00", "meta": {"OBJECT_NAME": "LUCH 5B (SDCM/PRN 125)", "OBJECT_ID": "2012-061A", "EPOCH": "2025-12-24T23:17:34.998144", "MEAN_MOTION": 1.00271775, "ECCENTRICITY": 0.000662, "INCLINATION": 10.1058, "RA_OF_ASC_NODE": 51.5875, "ARG_OF_PERICENTER": 196.0598, "MEAN_ANOMALY": 179.1583, "EPHEMERIS_TYPE": 0, "CLASSIFICATION_TYPE": "U", "NORAD_CAT_ID": 38977, "ELEMENT_SET_NO": 999, "REV_AT_EPOCH": 4786, "BSTAR": 0, "MEAN_MOTION_DOT": -1.21e-06, "MEAN_MOTION_DDOT": 0}, "tle": {"line1": "1 38977U 12061A   25358.97054396 -.00000121  00000+0  00000+0 0  9993", "line2": "2 38977  10.1058  51.5875 0006620 196.0598 179.1583  1.00271775 47863"}}, "geometry": {"type": "Point", "coordinates": [-60.09854671997013, -9.4211123813181]}}, {"type": "Feature", "properties": {"norad_id": 39155, "name": "COSMOS 2485 (747)", "group": "gnss", "lat": -61.46318466077279, "lon": -42.951782579855426, "alt_km": 19078.254431091293, "timestamp": "2025-12-25T14:48:25.022764+00:00", "meta": {"OBJECT_NAME": "COSMOS 2485 (747)", "OBJECT_ID": "2013-019A", "EPOCH": "2025-12-23T21:02:08.431872", "MEAN_MOTION": 2.13103241, "ECCENTRICITY": 0.00249991, "INCLINATION": 65.319, "RA_OF_ASC_NODE": 79.4929, "ARG_OF_PERICENTER": 230.4814, "MEAN_ANOMALY": 129.3448, "EPHEMERIS_TYPE": 0, "CLASSIFICATION_TYPE": "U", "NORAD_CAT_ID": 39155, "ELEMENT_SET_NO": 999, "REV_AT_EPOCH": 9854, "BSTAR": 0, "MEAN_MOTION_DOT": 2e-08, "MEAN_MOTION_DDOT": 0}, "tle": {"line1": "1 39155U 13019A   25357.87648648  .00000002  00000+0  00000+0 0  9990", "line2": "2 39155  65.3190  79.4929 0024999 230.4814 129.3448  2.13103241 98548"}}, "geometry": {"type": "Point", "coordinates": [-42.951782579855426, -61.46318466077279]}}, {"type": "Feature", "properties": {"norad_id": 39166, "name": "GPS BIIF-4  (PRN 27)", "group": "gnss", "lat": -34.952687533168216, "lon": -113.67148933247049, "alt_km": 20202.706013402567, "timestamp": "2025-12-25T14:48:25.022776+00:00", "meta": {"OBJECT_NAME": "GPS BIIF-4  (PRN 27)", "OBJECT_ID": "2013-023A", "EPOCH": "2025-12-24T04:22:45.402816", "MEAN_MOTION": 2.00564584, "ECCENTRICITY": 0.01386043, "INCLINATION": 54.6422, "RA_OF_ASC_NODE": 276.1031, "ARG_OF_PERICENTER": 48.7593, "MEAN_ANOMALY": 312.474, "EPHEMERIS_TYPE": 0, "CLASSIFICATION_TYPE": "U", "NORAD_CAT_ID": 39166, "ELEMENT_SET_NO": 999, "REV_AT_EPOCH": 9237, "BSTAR": 0, "MEAN_MOTION_DOT": -1.6e-07, "MEAN_MOTION_DDOT": 0}, "tle": {"line1": "1 39166U 13023A   25358.18246994 -.00000016  00000+0  00000+0 0  9996", "line2": "2 39166  54.6422 276.1031 0138604  48.7593 312.4740  2.00564584 92374"}}, "geometry": {"type": "Point", "coordinates": [-113.67148933247049, -34.952687533168216]}}, {"type": "Feature", "properties": {"norad_id": 39199, "name": "IRNSS-1A", "group": "gnss", "lat": -28.234984864601667, "lon": 17.22231028810165, "alt_km": 35793.292470079985, "timestamp": "2025-12-25T14:48:25.022786+00:00", "meta": {"OBJECT_NAME": "IRNSS-1A", "OBJECT_ID": "2013-034A", "EPOCH": "2025-12-24T18:29:47.559840", "MEAN_MOTION": 1.00273605, "ECCENTRICITY": 0.00238143, "INCLINATION": 35.3368, "RA_OF_ASC_NODE": 66.3779, "ARG_OF_PERICENTER": 212.7296, "MEAN_ANOMALY": 146.6998, "EPHEMERIS_TYPE": 0, "CLASSIFICATION_TYPE": "U", "NORAD_CAT_ID": 39199, "ELEMENT_SET_NO": 999, "REV_AT_EPOCH": 4561, "BSTAR": 0, "MEAN_MOTION_DOT": 7.9e-07, "MEAN_MOTION_DDOT": 0}, "tle": {"line1": "1 39199U 13034A   25358.77068935  .00000079  00000+0  00000+0 0  9994", "line2": "2 39199  35.3368  66.3779 0023814 212.7296 146.6998  1.00273605 45619"}}, "geometry": {"type": "Point", "coordinates": [17.22231028810165, -28.234984864601667]}}, {"type": "Feature", "properties": {"norad_id": 39533, "name": "GPS BIIF-5  (PRN 30)", "group": "gnss", "lat": -31.04848422874803, "lon": 130.03221183796887, "alt_km": 20201.207916677147, "timestamp": "2025-12-25T14:48:25.022796+00:00", "meta": {"OBJECT_NAME": "GPS BIIF-5  (PRN 30)", "OBJECT_ID": "2014-008A", "EPOCH": "2025-12-23T16:16:25.020768", "MEAN_MOTION": 2.00548852, "ECCENTRICITY": 0.00795532, "INCLINATION": 53.5993, "RA_OF_ASC_NODE": 156.4877, "ARG_OF_PERICENTER": 225.9161, "MEAN_ANOMALY": 133.4108, "EPHEMERIS_TYPE": 0, "CLASSIFICATION_TYPE": "U", "NORAD_CAT_ID": 39533, "ELEMENT_SET_NO": 999, "REV_AT_EPOCH": 8616, "BSTAR": 0, "MEAN_MOTION_DOT": 8.2e-07, "MEAN_MOTION_DDOT": 0}, "tle": {"line1": "1 39533U 14008A   25357.67806737  .00000082  00000+0  00000+0 0  9990", "line2": "2 39533  53.5993 156.4877 0079553 225.9161 133.4108  2.00548852 86167"}}, "geometry": {"type": "Point", "coordinates": [130.03221183796887, -31.04848422874803]}}, {"type": "Feature", "properties": {"norad_id": 39617, "name": "ASTRA 5B (EGNOS/PRN 123)", "group": "gnss", "lat": -0.03564738813014483, "lon": -19.990400414119392, "alt_km": 35776.383410547096, "timestamp": "2025-12-25T14:48:25.022806+00:00", "meta": {"OBJECT_NAME": "ASTRA 5B (EGNOS/PRN 123)", "OBJECT_ID": "2014-011B", "EPOCH": "2025-12-24T23:28:56.409888", "MEAN_MOTION": 1.00271157, "ECCENTRICITY": 0.00046155, "INCLINATION": 0.0444, "RA_OF_ASC_NODE": 13.6619, "ARG_OF_PERICENTER": 266.4538, "MEAN_ANOMALY": 189.3571, "EPHEMERIS_TYPE": 0, "CLASSIFICATION_TYPE": "U", "NORAD_CAT_ID": 39617, "ELEMENT_SET_NO": 999, "REV_AT_EPOCH": 4292, "BSTAR": 0, "MEAN_MOTION_DOT": 1.58e-06, "MEAN_MOTION_DDOT": 0}, "tle": {"line1": "1 39617U 14011B   25358.97843067  .00000158  00000+0  00000+0 0  9992", "line2": "2 39617   0.0444  13.6619 0004615 266.4538 189.3571  1.00271157 42921"}}, "geometry": {"type": "Point", "coordinates": [-19.990400414119392, -0.03564738813014483]}}]}